STARLINK-34105          
1 63977U 25099AB  26068.28299949  .00037781  00000+0  13746-2 0  9999
2 63977  43.0027 175.0896 0001488 301.6902  58.3804 15.27600260 47220
BANDWAGON-4 OBJECT N    
1 66305U 25248N   26068.03100984  .00024115  00000+0  97341-3 0  9997
2 66305  45.4084 294.9612 0013521 206.7837 153.2354 15.24369076 17177
